start=new Date('2023-01-24T00:00:00.000Z').valueOf();
sats=[{"CENTER_NAME":"EARTH","LAUNCH_DATE":"2022-06-17","PERIAPSIS":"538.895","ECCENTRICITY":"0.00012020","DECAY_DATE":null,"RCS_SIZE":"LARGE","SITE":"AFETR","EPOCH":"2023-01-23T06:07:28.324416","ARG_OF_PERICENTER":"74.4671","MEAN_ELEMENT_THEORY":"SGP4","TLE_LINE1":"1 52872U 22062AU  23023.25518894  .00004364  00000-0  29205-3 0  9996","ELEMENT_SET_NO":"999","SEMIMAJOR_AXIS":"6917.862","EPHEMERIS_TYPE":"0","MEAN_MOTION_DOT":"0.00004364","MEAN_ANOMALY":"285.6454","INCLINATION":"53.2172","MEAN_MOTION":"15.08846140","RA_OF_ASC_NODE":"98.2126","OBJECT_ID":"2022-062AU","TLE_LINE2":"2 52872  53.2172  98.2126 0001202  74.4671 285.6454 15.08846140 34231","APOAPSIS":"540.558","OBJECT_TYPE":"PAYLOAD","REV_AT_EPOCH":"3423","COUNTRY_CODE":"US","OBJECT_NAME":"STARLINK-4213","MEAN_MOTION_DDOT":"0.0000000000000","NORAD_CAT_ID":"52872","FILE":"3758567","CLASSIFICATION_TYPE":"U","BSTAR":"0.00029205000000","PERIOD":"95.437","GP_ID":"223607876","REF_FRAME":"TEME","TIME_SYSTEM":"UTC"},{"MEAN_MOTION_DOT":"-0.00003517","SEMIMAJOR_AXIS":"6917.906","EPHEMERIS_TYPE":"0","ELEMENT_SET_NO":"999","TLE_LINE1":"1 52873U 22062AV  23023.17423134 -.00003517  00000-0 -20307-3 0  9995","MEAN_ELEMENT_THEORY":"SGP4","OBJECT_ID":"2022-062AV","RA_OF_ASC_NODE":"98.5889","MEAN_MOTION":"15.08831590","INCLINATION":"53.2173","MEAN_ANOMALY":"265.6948","ECCENTRICITY":"0.00011270","LAUNCH_DATE":"2022-06-17","PERIAPSIS":"538.991","CENTER_NAME":"EARTH","ARG_OF_PERICENTER":"94.4173","EPOCH":"2023-01-23T04:10:53.587776","DECAY_DATE":null,"SITE":"AFETR","RCS_SIZE":"LARGE","BSTAR":"-0.00020307000000","CLASSIFICATION_TYPE":"U","FILE":"3758567","NORAD_CAT_ID":"52873","MEAN_MOTION_DDOT":"0.0000000000000","REF_FRAME":"TEME","TIME_SYSTEM":"UTC","GP_ID":"223607875","PERIOD":"95.438","REV_AT_EPOCH":"3422","COUNTRY_CODE":"US","OBJECT_TYPE":"PAYLOAD","APOAPSIS":"540.551","TLE_LINE2":"2 52873  53.2173  98.5889 0001127  94.4173 265.6948 15.08831590 34225","OBJECT_NAME":"STARLINK-4211"},{"MEAN_MOTION_DDOT":"0.0000000000000","FILE":"3759164","NORAD_CAT_ID":"52874","CLASSIFICATION_TYPE":"U","BSTAR":"-0.00000401540000","PERIOD":"95.438","GP_ID":"223621023","TIME_SYSTEM":"UTC","REF_FRAME":"TEME","TLE_LINE2":"2 52874  53.2186  97.3403 0001288 104.1142 255.9993 15.08835182 34269","APOAPSIS":"540.651","OBJECT_TYPE":"PAYLOAD","COUNTRY_CODE":"US","REV_AT_EPOCH":"3426","OBJECT_NAME":"STARLINK-4210","MEAN_ELEMENT_THEORY":"SGP4","TLE_LINE1":"1 52874U 22062AW  23023.45023387 -.00000352  00000-0 -40154-5 0  9991","EPHEMERIS_TYPE":"0","SEMIMAJOR_AXIS":"6917.895","ELEMENT_SET_NO":"999","MEAN_MOTION_DOT":"-0.00000352","MEAN_ANOMALY":"255.9993","INCLINATION":"53.2186","MEAN_MOTION":"15.08835182","OBJECT_ID":"2022-062AW","RA_OF_ASC_NODE":"97.3403","CENTER_NAME":"EARTH","PERIAPSIS":"538.869","LAUNCH_DATE":"2022-06-17","ECCENTRICITY":"0.00012880","DECAY_DATE":null,"SITE":"AFETR","RCS_SIZE":"LARGE","EPOCH":"2023-01-23T10:48:20.206368","ARG_OF_PERICENTER":"104.1142"},{"ECCENTRICITY":"0.00014300","PERIAPSIS":"538.783","LAUNCH_DATE":"2022-06-17","CENTER_NAME":"EARTH","ARG_OF_PERICENTER":"81.7515","EPOCH":"2023-01-23T05:40:59.060352","RCS_SIZE":"LARGE","DECAY_DATE":null,"SITE":"AFETR","MEAN_MOTION_DOT":"0.00004856","SEMIMAJOR_AXIS":"6917.908","EPHEMERIS_TYPE":"0","ELEMENT_SET_NO":"999","TLE_LINE1":"1 52875U 22062AX  23023.23679468  .00004856  00000-0  32304-3 0  9992","MEAN_ELEMENT_THEORY":"SGP4","OBJECT_ID":"2022-062AX","RA_OF_ASC_NODE":"98.3040","MEAN_MOTION":"15.08831084","INCLINATION":"53.2166","MEAN_ANOMALY":"278.3639","REV_AT_EPOCH":"3423","COUNTRY_CODE":"US","OBJECT_TYPE":"PAYLOAD","APOAPSIS":"540.762","TLE_LINE2":"2 52875  53.2166  98.3040 0001430  81.7515 278.3639 15.08831084 34239","OBJECT_NAME":"STARLINK-4193","BSTAR":"0.00032304000000","CLASSIFICATION_TYPE":"U","NORAD_CAT_ID":"52875","FILE":"3758567","MEAN_MOTION_DDOT":"0.0000000000000","REF_FRAME":"TEME","TIME_SYSTEM":"UTC","GP_ID":"223607603","PERIOD":"95.438"},{"DECAY_DATE":null,"SITE":"AFETR","RCS_SIZE":"LARGE","EPOCH":"2023-01-23T13:48:30.377376","ARG_OF_PERICENTER":"84.3498","CENTER_NAME":"EARTH","LAUNCH_DATE":"2022-06-17","PERIAPSIS":"538.682","ECCENTRICITY":"0.00015020","MEAN_ANOMALY":"275.7666","INCLINATION":"53.2170","MEAN_MOTION":"15.08847852","RA_OF_ASC_NODE":"96.7774","OBJECT_ID":"2022-062AY","MEAN_ELEMENT_THEORY":"SGP4","TLE_LINE1":"1 52876U 22062AY  23023.57535159  .00003007  00000-0  20692-3 0  9992","SEMIMAJOR_AXIS":"6917.856","ELEMENT_SET_NO":"999","EPHEMERIS_TYPE":"0","MEAN_MOTION_DOT":"0.00003007","OBJECT_NAME":"STARLINK-4200","TLE_LINE2":"2 52876  53.2170  96.7774 0001502  84.3498 275.7666 15.08847852 34286","APOAPSIS":"540.760","OBJECT_TYPE":"PAYLOAD","REV_AT_EPOCH":"3428","COUNTRY_CODE":"US","PERIOD":"95.437","GP_ID":"223613550","TIME_SYSTEM":"UTC","REF_FRAME":"TEME","MEAN_MOTION_DDOT":"0.0000000000000","FILE":"3758815","NORAD_CAT_ID":"52876","CLASSIFICATION_TYPE":"U","BSTAR":"0.00020692000000"},{"MEAN_ANOMALY":"265.8415","MEAN_MOTION":"15.08856193","INCLINATION":"53.2188","OBJECT_ID":"2022-062AZ","RA_OF_ASC_NODE":"96.6262","MEAN_ELEMENT_THEORY":"SGP4","TLE_LINE1":"1 52877U 22062AZ  23023.60846044  .00001803  00000-0  13131-3 0  9997","MEAN_MOTION_DOT":"0.00001803","EPHEMERIS_TYPE":"0","SEMIMAJOR_AXIS":"6917.831","ELEMENT_SET_NO":"999","DECAY_DATE":null,"SITE":"AFETR","RCS_SIZE":"LARGE","EPOCH":"2023-01-23T14:36:10.982016","ARG_OF_PERICENTER":"94.2700","PERIAPSIS":"538.954","LAUNCH_DATE":"2022-06-17","CENTER_NAME":"EARTH","ECCENTRICITY":"0.00010730","PERIOD":"95.437","GP_ID":"223620934","REF_FRAME":"TEME","TIME_SYSTEM":"UTC","MEAN_MOTION_DDOT":"0.0000000000000","FILE":"3759160","NORAD_CAT_ID":"52877","BSTAR":"0.00013131000000","CLASSIFICATION_TYPE":"U","OBJECT_NAME":"STARLINK-4214","TLE_LINE2":"2 52877  53.2188  96.6262 0001073  94.2700 265.8415 15.08856193 34297","OBJECT_TYPE":"PAYLOAD","APOAPSIS":"540.438","COUNTRY_CODE":"US","REV_AT_EPOCH":"3429"},{"ECCENTRICITY":"0.00011600","LAUNCH_DATE":"2022-06-17","PERIAPSIS":"538.944","CENTER_NAME":"EARTH","ARG_OF_PERICENTER":"101.3044","EPOCH":"2023-01-23T15:07:59.626272","DECAY_DATE":null,"SITE":"AFETR","RCS_SIZE":"LARGE","MEAN_MOTION_DOT":"0.00005774","EPHEMERIS_TYPE":"0","SEMIMAJOR_AXIS":"6917.882","ELEMENT_SET_NO":"999","TLE_LINE1":"1 52878U 22062BA  23023.63055123  .00005774  00000-0  38060-3 0  9990","MEAN_ELEMENT_THEORY":"SGP4","OBJECT_ID":"2022-062BA","RA_OF_ASC_NODE":"96.5303","MEAN_MOTION":"15.08839495","INCLINATION":"53.2171","MEAN_ANOMALY":"258.8078","REV_AT_EPOCH":"3429","COUNTRY_CODE":"US","OBJECT_TYPE":"PAYLOAD","APOAPSIS":"540.549","TLE_LINE2":"2 52878  53.2171  96.5303 0001160 101.3044 258.8078 15.08839495 34296","OBJECT_NAME":"STARLINK-4171","BSTAR":"0.00038060000000","CLASSIFICATION_TYPE":"U","FILE":"3759165","NORAD_CAT_ID":"52878","MEAN_MOTION_DDOT":"0.0000000000000","REF_FRAME":"TEME","TIME_SYSTEM":"UTC","GP_ID":"223621314","PERIOD":"95.438"},{"TLE_LINE2":"2 52879  53.2187  98.4697 0001339  82.3934 277.7210 15.08842774 34231","OBJECT_TYPE":"PAYLOAD","APOAPSIS":"540.663","COUNTRY_CODE":"US","REV_AT_EPOCH":"3423","OBJECT_NAME":"STARLINK-4139","MEAN_MOTION_DDOT":"0.0000000000000","FILE":"3758573","NORAD_CAT_ID":"52879","BSTAR":"0.00052998000000","CLASSIFICATION_TYPE":"U","PERIOD":"95.437","GP_ID":"223608157","TIME_SYSTEM":"UTC","REF_FRAME":"TEME","PERIAPSIS":"538.811","LAUNCH_DATE":"2022-06-17","CENTER_NAME":"EARTH","ECCENTRICITY":"0.00013390","SITE":"AFETR","DECAY_DATE":null,"RCS_SIZE":"LARGE","EPOCH":"2023-01-23T04:47:59.478144","ARG_OF_PERICENTER":"82.3934","MEAN_ELEMENT_THEORY":"SGP4","TLE_LINE1":"1 52879U 22062BB  23023.19999396  .00008157  00000-0  52998-3 0  9995","MEAN_MOTION_DOT":"0.00008157","ELEMENT_SET_NO":"999","SEMIMAJOR_AXIS":"6917.872","EPHEMERIS_TYPE":"0","MEAN_ANOMALY":"277.7210","MEAN_MOTION":"15.08842774","INCLINATION":"53.2187","OBJECT_ID":"2022-062BB","RA_OF_ASC_NODE":"98.4697"},{"MEAN_ELEMENT_THEORY":"SGP4","TLE_LINE1":"1 52880U 22062BC  23023.20367389  .00010269  00000-0  66229-3 0  9999","MEAN_MOTION_DOT":"0.00010269","SEMIMAJOR_AXIS":"6917.866","EPHEMERIS_TYPE":"0","ELEMENT_SET_NO":"999","MEAN_ANOMALY":"272.7277","MEAN_MOTION":"15.08844578","INCLINATION":"53.2160","RA_OF_ASC_NODE":"98.4557","OBJECT_ID":"2022-062BC","LAUNCH_DATE":"2022-06-17","PERIAPSIS":"538.798","CENTER_NAME":"EARTH","ECCENTRICITY":"0.00013490","SITE":"AFETR","DECAY_DATE":null,"RCS_SIZE":"LARGE","EPOCH":"2023-01-23T04:53:17.424096","ARG_OF_PERICENTER":"87.3869","MEAN_MOTION_DDOT":"0.0000000000000","NORAD_CAT_ID":"52880","FILE":"3758573","BSTAR":"0.00066229000000","CLASSIFICATION_TYPE":"U","PERIOD":"95.437","GP_ID":"223607891","REF_FRAME":"TEME","TIME_SYSTEM":"UTC","TLE_LINE2":"2 52880  53.2160  98.4557 0001349  87.3869 272.7277 15.08844578 34234","OBJECT_TYPE":"PAYLOAD","APOAPSIS":"540.665","REV_AT_EPOCH":"3423","COUNTRY_CODE":"US","OBJECT_NAME":"STARLINK-4186"},{"ARG_OF_PERICENTER":"90.0615","EPOCH":"2023-01-23T11:20:07.752480","DECAY_DATE":null,"SITE":"AFETR","RCS_SIZE":"LARGE","ECCENTRICITY":"0.00021020","PERIAPSIS":"538.293","LAUNCH_DATE":"2022-06-17","CENTER_NAME":"EARTH","RA_OF_ASC_NODE":"97.2493","OBJECT_ID":"2022-062BD","MEAN_MOTION":"15.08839414","INCLINATION":"53.2169","MEAN_ANOMALY":"270.0618","MEAN_MOTION_DOT":"0.00000602","EPHEMERIS_TYPE":"0","SEMIMAJOR_AXIS":"6917.882","ELEMENT_SET_NO":"999","TLE_LINE1":"1 52881U 22062BD  23023.47231195  .00000602  00000-0  55914-4 0  9994","MEAN_ELEMENT_THEORY":"SGP4","OBJECT_NAME":"STARLINK-4192","COUNTRY_CODE":"US","REV_AT_EPOCH":"3427","OBJECT_TYPE":"PAYLOAD","APOAPSIS":"541.201","TLE_LINE2":"2 52881  53.2169  97.2493 0002102  90.0615 270.0618 15.08839414 34275","TIME_SYSTEM":"UTC","REF_FRAME":"TEME","GP_ID":"223613862","PERIOD":"95.438","BSTAR":"0.00005591400000","CLASSIFICATION_TYPE":"U","FILE":"3758816","NORAD_CAT_ID":"52881","MEAN_MOTION_DDOT":"0.0000000000000"}];
